GLOBALSTAR M084         
1 38040U 11080A   24333.96888372 -.00000079  00000+0  13889-3 0  9999
2 38040  52.0018 298.0113 0000597  25.9520  14.7677 12.62271368597383
GLOBALSTAR M080         
1 38041U 11080B   24334.17430144 -.00000091  00000+0  70302-4 0  9992
2 38041  52.0070 298.9236 0000501 358.3946  15.5464 12.62269171597671
GLOBALSTAR M082         
1 38042U 11080C   24334.29478134 -.00000074  00000+0  16769-3 0  9994
2 38042  52.0074 253.9818 0001182  80.4955  61.5255 12.62270168598423
GLOBALSTAR M092         
1 38043U 11080D   24334.74995231 -.00000086  00000+0  99901-4 0  9990
2 38043  52.0104 342.9617 0000383  61.6256 109.8884 12.62269876596977
GLOBALSTAR M090         
1 38044U 11080E   24333.82325506 -.00000074  00000+0  16461-3 0  9997
2 38044  51.9862 249.4814 0000715  81.8973 316.9383 12.62264962598312
GLOBALSTAR M086         
1 38045U 11080F   24334.08158928 -.00000075  00000+0  16059-3 0  9993
2 38045  51.9895 249.2309 0000129 186.3238 187.4763 12.62263825598398
GLOBALSTAR M097         
1 39072U 13005A   24333.86783552 -.00000058  00000+0  25325-3 0  9992
2 39072  52.0016 164.2271 0001023 104.5099 255.5881 12.62267943545510
GLOBALSTAR M093         
1 39073U 13005B   24334.79116473 -.00000080  00000+0  13025-3 0  9997
2 39073  51.9782 155.0348 0001130 108.3013 251.7976 12.62276843545702
